[{"OBJECT_NAME":"SHIJIAN-15 (SJ-15)","OBJECT_ID":"2013-037C","EPOCH":"2026-03-09T22:45:08.192736","MEAN_MOTION":14.71357626,"ECCENTRICITY":0.0007545,"INCLINATION":98.1055,"RA_OF_ASC_NODE":72.3692,"ARG_OF_PERICENTER":101.5082,"MEAN_ANOMALY":258.6973,"EPHEMERIS_TYPE":0,"CLASSIFICATION_TYPE":"U","NORAD_CAT_ID":39210,"ELEMENT_SET_NO":999,"REV_AT_EPOCH":67973,"BSTAR":0.00018012312,"MEAN_MOTION_DOT":1.064e-5,"MEAN_MOTION_DDOT":0},{"OBJECT_NAME":"CZ-6A DEB","OBJECT_ID":"2022-151MD","EPOCH":"2026-03-09T01:09:00.063360","MEAN_MOTION":14.67742305,"ECCENTRICITY":0.0063173,"INCLINATION":98.4594,"RA_OF_ASC_NODE":100.6325,"ARG_OF_PERICENTER":213.1867,"MEAN_ANOMALY":146.5367,"EPHEMERIS_TYPE":0,"CLASSIFICATION_TYPE":"U","NORAD_CAT_ID":54577,"ELEMENT_SET_NO":999,"REV_AT_EPOCH":17495,"BSTAR":0.0026316145,"MEAN_MOTION_DOT":0.00015427,"MEAN_MOTION_DDOT":0}]
